NOAA 15                 
1 25338U 98030A   22242.57748009  .00000084  00000+0  53480-4 0  9998
2 25338  98.6405 271.1299 0011532  83.0475 277.2016 14.26165541263837
DMSP 5D-3 F15 (USA 147) 
1 25991U 99067A   22242.57584035  .00000048  00000+0  47054-4 0  9991
2 25991  99.0576 235.4341 0009834 344.8685 110.5080 14.16564390174284
METEOSAT-8 (MSG-1)      
1 27509U 02040B   22242.12844442  .00000138  00000+0  00000+0 0  9990
2 27509   8.1698  50.2333 0001402 115.1119 260.5870  1.00273219 73350
DMSP 5D-3 F16 (USA 172) 
1 28054U 03048A   22242.56609400 -.00000006  00000+0  20719-4 0  9995
2 28054  98.9935 233.7741 0008408 104.9524   0.1353 14.13679426973493
NOAA 18                 
1 28654U 05018A   22242.49953910  .00000127  00000+0  92283-4 0  9998
2 28654  98.9445 312.8612 0015255 120.8741 239.3933 14.12769506890437
METEOSAT-9 (MSG-2)      
1 28912U 05049B   22242.20111633  .00000131  00000+0  00000+0 0  9992
2 28912   6.1796  65.8043 0000682 199.0332 191.5786  1.00272126 61131
EWS-G1 (GOES 13)        
1 29155U 06018A   22242.54632525  .00000038  00000+0  00000+0 0  9990
2 29155   0.7709  96.2520 0005858 103.8021  36.8328  1.00274877 59608
DMSP 5D-3 F17 (USA 191) 
1 29522U 06050A   22242.51249784  .00000010  00000+0  28297-4 0  9995
2 29522  98.7668 256.1780 0010813  54.8785 305.3400 14.14107808816379
FENGYUN 3A              
1 32958U 08026A   22242.44906374  .00000026  00000+0  32621-4 0  9997
2 32958  98.5091 202.0800 0008948 161.9055 198.2441 14.18735158738717
FENGYUN 2E              
1 33463U 08066A   22242.56798725 -.00000197  00000+0  00000+0 0  9996
2 33463   6.0651  64.8636 0002352  29.4088 175.3276  1.00265298 50183
NOAA 19                 
1 33591U 09005A   22242.50918046  .00000101  00000+0  79824-4 0  9995
2 33591  99.1432 278.1844 0013531 344.2332  15.8415 14.12603311698648
GOES 14                 
1 35491U 09033A   22242.38008256 -.00000090  00000+0  00000+0 0  9999
2 35491   0.4422 268.1268 0016932 302.1111 160.5902  1.00274079 48206
METEOR-M 1              
1 35865U 09049A   22242.47070325  .00000028  00000+0  31443-4 0  9997
2 35865  98.5352 210.5769 0002869  35.4513 324.6856 14.22352151672068
DMSP 5D-3 F18 (USA 210) 
1 35951U 09057A   22242.51597538  .00000164  00000+0  11004-3 0  9998
2 35951  98.7286 220.0985 0009997 232.8676 127.1584 14.13546141663596
GOES 15                 
1 36411U 10008A   22242.38591336  .00000054  00000+0  00000+0 0  9991
2 36411   0.4020 276.6074 0004739 249.5779 183.3510  1.00276172 45760
COMS 1                  
1 36744U 10032A   22242.43283373 -.00000343  00000+0  00000+0 0  9994
2 36744   1.2616  92.1125 0000913  57.8413 112.6144  1.00271304 37189
FENGYUN 3B              
1 37214U 10059A   22242.42436353 -.00000029  00000+0  91814-5 0  9993
2 37214  99.0938 249.7153 0022685 144.5594 215.7101 14.14262887611416
SUOMI NPP               
1 37849U 11061A   22242.57018774  .00000027  00000+0  33511-4 0  9996
2 37849  98.7343 180.1023 0001245  83.0149  21.1895 14.19540180561707
FENGYUN 2F              
1 38049U 12002A   22242.42969451 -.00000354  00000+0  00000+0 0  9992
2 38049   3.9659  79.1070 0000451 117.9742  48.2782  1.00265466 38982
METEOSAT-10 (MSG-3)     
1 38552U 12035B   22242.33741049  .00000063  00000+0  00000+0 0  9994
2 38552   1.6318  45.1027 0000411  51.1040  13.0175  1.00275297 36953
METOP-B                 
1 38771U 12049A   22242.54722980  .00000035  00000+0  36056-4 0  9992
2 38771  98.6898 301.1823 0001206 134.0495 354.3970 14.21503787516257
FENGYUN 3C              
1 39260U 13052A   22242.32693984  .00000041  00000+0  41522-4 0  9999
2 39260  98.4514 266.6900 0012182  64.2892 295.9554 14.15938974462379
METEOR-M 2              
1 40069U 14037A   22242.41266531  .00000008  00000+0  22686-4 0  9999
2 40069  98.4314 256.8409 0006787 104.3919 255.8013 14.20716775422360
HIMAWARI-8              
1 40267U 14060A   22242.43536253 -.00000274  00000+0  00000+0 0  9995
2 40267   0.0203 193.5238 0001060 316.5275 125.9423  1.00272466 28850
FENGYUN 2G              
1 40367U 14090A   22242.42707851 -.00000297  00000+0  00000+0 0  9997
2 40367   2.1148  88.7436 0000575 256.6068 246.3013  1.00260819 28099
METEOSAT-11 (MSG-4)     
1 40732U 15034A   22242.33549208 -.00000006  00000+0  00000+0 0  9990
2 40732   0.4421  70.0112 0001091  42.5750 346.2797  1.00270128 26124
ELEKTRO-L 2             
1 41105U 15074A   22242.40442076 -.00000113  00000+0  00000+0 0  9991
2 41105   3.1692  87.2836 0002386 101.6208 280.8198  1.00271958 24617
HIMAWARI-9              
1 41836U 16064A   22242.43536253 -.00000274  00000+0  00000+0 0  9994
2 41836   0.0175 248.8354 0000684 246.3690 140.8954  1.00268211 21284
GOES 16                 
1 41866U 16071A   22242.10533633 -.00000247  00000+0  00000+0 0  9998
2 41866   0.0621 279.4792 0000436 281.9723  99.5481  1.00272517 21207
FENGYUN 4A              
1 41882U 16077A   22242.54369112 -.00000329  00000+0  00000+0 0  9990
2 41882   0.1532  86.0450 0002159  58.2653 134.7070  1.00276720 21072
CYGFM05                 
1 41884U 16078A   22241.97815256  .00002529  00000+0  12773-3 0  9991
2 41884  34.9560 103.8059 0014643  25.8848 334.2594 15.16640454315952
CYGFM04                 
1 41885U 16078B   22242.26745164  .00001628  00000+0  81633-4 0  9996
2 41885  34.9492  90.8197 0012835  46.3756 313.8018 15.17174420316043
CYGFM02                 
1 41886U 16078C   22241.92736213  .00002621  00000+0  13019-3 0  9990
2 41886  34.9582  95.1730 0013640  37.0256 323.1396 15.17216706316072
CYGFM01                 
1 41887U 16078D   22242.31866441  .00001639  00000+0  83817-4 0  9994
2 41887  34.9526 104.1944 0015038  28.5167 331.6365 15.16441604315950
CYGFM08                 
1 41888U 16078E   22242.28034693  .00001625  00000+0  82064-4 0  9995
2 41888  34.9496  96.7361 0014090  40.4742 319.7015 15.16916170316084
CYGFM06                 
1 41889U 16078F   22242.30175224  .00001745  00000+0  87232-4 0  9990
2 41889  34.9577  91.5054 0012585  40.2247 319.9394 15.17228514316072
CYGFM07                 
1 41890U 16078G   22242.28939434  .00001718  00000+0  86069-4 0  9997
2 41890  34.9517  90.4321 0012336  44.7554 315.4151 15.17160081316051
CYGFM03                 
1 41891U 16078H   22242.28818757  .00001701  00000+0  85252-4 0  9997
2 41891  34.9548  90.9323 0011887  42.4093 317.7536 15.17165540316042
FENGYUN 3D              
1 43010U 17072A   22242.44891751  .00000019  00000+0  30350-4 0  9990
2 43010  98.8187 186.6954 0002839  59.4397 300.7060 14.19219518248268
NOAA 20                 
1 43013U 17073A   22242.51380590  .00000032  00000+0  36082-4 0  9999
2 43013  98.7182 179.9180 0000960 112.4256 247.7022 14.19540297247738
GOES 17                 
1 43226U 18022A   22242.48981538  .00000100  00000+0  00000+0 0  9997
2 43226   0.0994 278.9942 0000256 225.1973 233.4876  1.00272956 16512
FENGYUN 2H              
1 43491U 18050A   22242.42306729 -.00000123  00000+0  00000+0 0  9995
2 43491   1.3288  95.7574 0004259  48.2492  65.8780  1.00267320 15530
METOP-C                 
1 43689U 18087A   22242.48872442  .00000037  00000+0  36934-4 0  9993
2 43689  98.6780 301.2514 0002958 163.1869 196.9407 14.21503741197825
GEO-KOMPSAT-2A          
1 43823U 18100A   22242.28936309 -.00000343  00000+0  00000+0 0  9991
2 43823   0.0215 112.2356 0001939   3.8716  94.7833  1.00270682 13719
METEOR-M2 2             
1 44387U 19038A   22242.43627609 -.00000013  00000+0  13852-4 0  9993
2 44387  98.7284 202.6435 0002375  71.0034 289.1406 14.23717928163936
FENGYUN 3E              
1 49008U 21062A   22242.30048825 -.00000007  00000+0  17335-4 0  9994
2 49008  98.7134 243.1008 0002644 117.4230 242.7214 14.19737031 59795
GOES 18                 
1 51850U 22021A   22242.50392042  .00000098  00000+0  00000+0 0  9998
2 51850   0.0324  69.8132 0002799 140.0957 173.1829  1.00272818  1878
